NORAD_CAT_ID,OBJECT_NAME,OBJECT_TYPE,EPOCH,MEAN_MOTION,ECCENTRICITY,INCLINATION,RA_OF_ASC_NODE,ARG_OF_PERICENTER,MEAN_ANOMALY,BSTAR,MEAN_MOTION_DOT,MEAN_MOTION_DDOT,TLE_LINE0,TLE_LINE1,TLE_LINE2,SEMIMAJOR_AXIS,PERIOD,APOGEE,PERIGEE,DECAYED
49144.0,STARLINK-3100,PAYLOAD,2022-04-01 14:00:01,14.98348088,0.0003157,70.0013,320.4326,277.8133,211.7478,-0.00077685,-9.354e-05,0.0,0 STARLINK-3100,1 49144U 21082Q   22091.58334491 -.00009354  00000-0 -77685-3 0  9995,2 49144  70.0013 320.4326 0003157 277.8133 211.7478 14.98348088  3581,6950.137,96.106,574.196,569.808,0.0
49144.0,STARLINK-3100,PAYLOAD,2022-04-01 22:00:00,14.98315753,0.0003269,70.0013,319.592,282.2002,204.8671,-0.00094304,-0.00011323,0.0,0 STARLINK-3100,1 49144U 21082Q   22091.91667824 -.00011323  00000-0 -94304-3 0  9997,2 49144  70.0013 319.5920 0003269 282.2002 204.8671 14.98315753  3568,6950.236999999999,96.108,574.374,569.83,0.0
49144.0,STARLINK-3100,PAYLOAD,2022-04-02 08:00:01,14.98321421,0.0003283,70.0012,318.5416,280.6188,293.2763,-0.0014867,-0.00017784,0.0,0 STARLINK-3100,1 49144U 21082Q   22092.33334491 -.00017784  00000-0 -14867-2 0  9997,2 49144  70.0012 318.5416 0003283 280.6188 293.2763 14.98321421 30674,6950.219,96.108,574.366,569.803,0.0
49144.0,STARLINK-3100,PAYLOAD,2022-04-02 22:00:01,14.98314654,0.0003256,70.0011,317.0703,280.9579,198.5961,0.0010553,0.00012516,0.0,0 STARLINK-3100,1 49144U 21082Q   22092.91668981  .00012516  00000-0  10553-2 0  9999,2 49144  70.0011 317.0703 0003256 280.9579 198.5961 14.98314654 30760,6950.24,96.108,574.368,569.842,0.0
49144.0,STARLINK-3100,PAYLOAD,2022-04-03 22:00:00,14.98297337,0.0003138,70.001,314.5488,281.5791,190.3402,0.0011375,0.00013494,0.0,0 STARLINK-3100,1 49144U 21082Q   22093.91667824  .00013494  00000-0  11375-2 0  9994,2 49144  70.0010 314.5488 0003138 281.5791 190.3402 14.98297337 30918,6950.294,96.109,574.34,569.9780000000002,0.0
49144.0,STARLINK-3100,PAYLOAD,2022-04-04 14:00:01,14.98312897,0.0003067,70.0011,312.8678,276.5003,190.331,0.0024857,0.00029679,0.0,0 STARLINK-3100,1 49144U 21082Q   22094.58334491  .00029679  00000-0  24857-2 0  9990,2 49144  70.0011 312.8678 0003067 276.5003 190.3310 14.98312897  3593,6950.246,96.108,574.242,569.979,0.0
49144.0,STARLINK-3100,PAYLOAD,2022-04-04 22:00:00,14.98314133,0.0003123,70.001,312.0273,282.4108,181.9019,0.0016898,0.00020119,0.0,0 STARLINK-3100,1 49144U 21082Q   22094.91667824  .00020119  00000-0  16898-2 0  9992,2 49144  70.0010 312.0273 0003123 282.4108 181.9019 14.98314133  3609,6950.2419999999975,96.108,574.278,569.936,0.0
49144.0,STARLINK-3100,PAYLOAD,2022-04-05 00:00:00,14.98305007,0.0003131,70.001,311.8171,283.8358,269.8478,0.0039455,0.00047273,0.0,0 STARLINK-3100,1 49144U 21082Q   22095.00001157  .00047273  00000-0  39455-2 0  9998,2 49144  70.0010 311.8171 0003131 283.8358 269.8478 14.98305007 31071,6950.27,96.109,574.311,569.9590000000002,0.0
49144.0,STARLINK-3100,PAYLOAD,2022-04-05 14:00:01,14.9832964,0.0003001,70.0011,310.3462,277.0469,182.2774,0.0018177,0.00021662,0.0,0 STARLINK-3100,1 49144U 21082Q   22095.58335648  .00021662  00000-0  18177-2 0  9998,2 49144  70.0011 310.3462 0003001 277.0469 182.2774 14.98329640  3551,6950.194,96.107,574.145,569.9730000000002,0.0
49144.0,STARLINK-3100,PAYLOAD,2022-04-05 16:00:00,14.98354187,0.0003039,70.0012,310.1361,277.6505,270.9769,-0.0022147,-0.00026436,0.0,0 STARLINK-3100,1 49144U 21082Q   22095.66667824 -.00026436  00000-0 -22147-2 0  9999,2 49144  70.0012 310.1361 0003039 277.6505 270.9769 14.98354187 31178,6950.118,96.105,574.095,569.871,0.0
49144.0,STARLINK-3100,PAYLOAD,2022-04-05 22:00:00,14.98325801,0.0003073,70.001,309.5057,283.1848,173.5745,0.0016840999999999,0.00020057,0.0,0 STARLINK-3100,1 49144U 21082Q   22095.91667824  .00020057  00000-0  16841-2 0  9992,2 49144  70.0010 309.5057 0003073 283.1848 173.5745 14.98325801  3600,6950.206,96.107,574.207,569.935,0.0
49144.0,STARLINK-3100,PAYLOAD,2022-04-06 14:00:01,14.98354955,0.0003025,70.0011,307.8246,276.7689,174.9695,-0.00095733,-0.00011504,0.0,0 STARLINK-3100,1 49144U 21082Q   22096.58334491 -.00011504  00000-0 -95733-3 0  9994,2 49144  70.0011 307.8246 0003025 276.7689 174.9695 14.98354955 31310,6950.116,96.105,574.0830000000002,569.878,0.0
49144.0,STARLINK-3100,PAYLOAD,2022-04-06 22:00:00,14.98318156,0.0003171,70.0012,306.9840000000001,282.212,167.0414,0.00091368,0.00010822,0.0,0 STARLINK-3100,1 49144U 21082Q   22096.91667824  .00010822  00000-0  91368-3 0  9990,2 49144  70.0012 306.9840 0003171 282.2120 167.0414 14.98318156  3599,6950.23,96.108,574.298,569.891,0.0
49144.0,STARLINK-3100,PAYLOAD,2022-04-07 14:00:01,14.98332984,0.0003138,70.0012,305.3029,275.6502,168.5508,0.0010888,0.00012923,0.0,0 STARLINK-3100,1 49144U 21082Q   22097.58334491  .00012923  00000-0  10888-2 0  9996,2 49144  70.0012 305.3029 0003138 275.6502 168.5508 14.98332984  3601,6950.184,96.107,574.23,569.868,0.0
49144.0,STARLINK-3100,PAYLOAD,2022-04-07 20:00:01,14.98335514,0.0003225,70.0012,304.6725,279.7138,72.6098,-0.00031963,-3.905e-05,0.0,0 STARLINK-3100,1 49144U 21082Q   22097.83334491 -.00003905  00000-0 -31963-3 0  9994,2 49144  70.0012 304.6725 0003225 279.7138  72.6098 14.98335514 31492,6950.176,96.107,574.2819999999998,569.799,0.0
49144.0,STARLINK-3100,PAYLOAD,2022-04-07 22:00:00,14.98324599,0.0003226,70.0013,304.4624,281.2094,160.4892,0.0018797,0.00022404,0.0,0 STARLINK-3100,1 49144U 21082Q   22097.91667824  .00022404  00000-0  18797-2 0  9994,2 49144  70.0013 304.4624 0003226 281.2094 160.4892 14.98324599  3598,6950.21,96.107,574.317,569.832,0.0
49144.0,STARLINK-3100,PAYLOAD,2022-04-08 14:00:03,14.98356792,0.0003146,70.0014,302.7813,275.2543,161.5475,-0.0030055,-0.00035797,0.0,0 STARLINK-3100,1 49144U 21082Q   22098.58336806 -.00035797  00000-0 -30055-2 0  9993,2 49144  70.0014 302.7813 0003146 275.2543 161.5475 14.98356792  3592,6950.11,96.105,574.1619999999998,569.789,0.0
49144.0,STARLINK-3100,PAYLOAD,2022-04-08 22:00:00,14.98310691,0.0003159,70.0013,301.9409,281.1979,152.9843,0.002277,0.00027168,0.0,0 STARLINK-3100,1 49144U 21082Q   22098.91667824  .00027168  00000-0  22770-2 0  9993,2 49144  70.0013 301.9409 0003159 281.1979 152.9843 14.98310691 31666,6950.253000000002,96.108,574.313,569.922,0.0
49144.0,STARLINK-3100,PAYLOAD,2022-04-09 14:00:01,14.98336071,0.0003143999999999,70.0015,300.26,275.2312,153.8783,-0.00017494,-2.18e-05,0.0,0 STARLINK-3100,1 49144U 21082Q   22099.58334491 -.00002180  00000-0 -17494-3 0  9995,2 49144  70.0015 300.2600 0003144 275.2312 153.8783 14.98336071  3596,6950.174,96.107,574.224,569.854,0.0
49144.0,STARLINK-3100,PAYLOAD,2022-04-09 16:00:00,14.98352936,0.0003171,70.0014,300.0499,276.2453,242.232,-0.003497,-0.00041597,0.0,0 STARLINK-3100,1 49144U 21082Q   22099.66667824 -.00041597  00000-0 -34970-2 0  9995,2 49144  70.0014 300.0499 0003171 276.2453 242.2320 14.98352936 31775,6950.121999999999,96.106,574.191,569.783,0.0
49144.0,STARLINK-3100,PAYLOAD,2022-04-09 22:00:00,14.98314954,0.0003172,70.0014,299.4197,281.3914,145.214,0.002546,0.00030406,0.0,0 STARLINK-3100,1 49144U 21082Q   22099.91667824  .00030406  00000-0  25460-2 0  9992,2 49144  70.0014 299.4197 0003172 281.3914 145.2140 14.98314954  3590,6950.239000000001,96.108,574.309,569.9,0.0
49144.0,STARLINK-3100,PAYLOAD,2022-04-10 06:00:02,14.98343288,0.0003112,70.0011,298.5792,279.006,145.1434,-0.0022438,-0.00026773,0.0,0 STARLINK-3100,1 49144U 21082Q   22100.25002315 -.00026773  00000-0 -22438-2 0  9996,2 49144  70.0011 298.5792 0003112 279.0060 145.1434 14.98343288 31866,6950.151999999999,96.106,574.18,569.854,0.0
49144.0,STARLINK-3100,PAYLOAD,2022-04-10 14:00:01,14.98352898,0.0003148,70.0014,297.7389,275.6776,145.8909,-0.00066279,-7.997e-05,0.0,0 STARLINK-3100,1 49144U 21082Q   22100.58334491 -.00007997  00000-0 -66279-3 0  9994,2 49144  70.0014 297.7389 0003148 275.6776 145.8909 14.98352898  3586,6950.121999999999,96.106,574.175,569.799,0.0
49144.0,STARLINK-3100,PAYLOAD,2022-04-10 22:00:00,14.98339201,0.0003213,70.0012,296.8985,281.8901,137.1902,-0.00044792,-5.435e-05,0.0,0 STARLINK-3100,1 49144U 21082Q   22100.91667824 -.00005435  00000-0 -44792-3 0  9991,2 49144  70.0012 296.8985 0003213 281.8901 137.1902 14.98339201 31961,6950.1640000000025,96.106,574.263,569.7959999999998,0.0
49144.0,STARLINK-3100,PAYLOAD,2022-04-11 14:00:01,14.98339999,0.0003212,70.0011,295.2177,275.9436,138.0948,-0.0010038,-0.00012053,0.0,0 STARLINK-3100,1 49144U 21082Q   22101.58334491 -.00012053  00000-0 -10038-2 0  9995,2 49144  70.0011 295.2177 0003212 275.9436 138.0948 14.98339999  3594,6950.1619999999975,96.106,574.259,569.795,0.0
49144.0,STARLINK-3100,PAYLOAD,2022-04-11 22:00:00,14.98308734,0.0003242,70.001,294.3773,281.9948,129.533,0.0029388,0.0003513,0.0,0 STARLINK-3100,1 49144U 21082Q   22101.91667824  .00035130  00000-0  29388-2 0  9998,2 49144  70.0010 294.3773 0003242 281.9948 129.5330 14.98308734  3574,6950.259,96.108,574.377,569.87,0.0
49144.0,STARLINK-3100,PAYLOAD,2022-04-12 06:00:02,14.9832875,0.0003165,70.0005,293.5368,278.6106,130.45600000000002,-0.0012658,-0.00015163,0.0,0 STARLINK-3100,1 49144U 21082Q   22102.25002315 -.00015163  00000-0 -12658-2 0  9992,2 49144  70.0005 293.5368 0003165 278.6106 130.4560 14.98328750 32165,6950.196999999999,96.107,574.261,569.862,0.0
49144.0,STARLINK-3100,PAYLOAD,2022-04-12 14:00:01,14.983299300000002,0.0003333,70.0003,292.702,283.3713,123.0816,5.4104e-05,5.53e-06,0.0,0 STARLINK-3100,1 49144U 21082Q   22102.58334491  .00000553  00000-0  54104-4 0  9990,2 49144  70.0003 292.7020 0003333 283.3713 123.0816 14.98329930  3580,6950.193,96.107,574.375,569.742,0.0
49144.0,STARLINK-3100,PAYLOAD,2022-04-12 22:00:00,14.98316654,0.0003249,70.0006,291.8558,281.2866,122.6859,0.0029058,0.00034739,0.0,0 STARLINK-3100,1 49144U 21082Q   22102.91667824  .00034739  00000-0  29058-2 0  9997,2 49144  70.0006 291.8558 0003249 281.2866 122.6859 14.98316654 32269,6950.234,96.108,574.357,569.841,0.0
